XRISM                   
1 57800U 23137A   24188.84137445  .00003809  00000+0  28152-3 0  9995
2 57800  31.0020 247.4854 0009507  44.4667 315.6731 15.01437939 45562
